{"type": "FeatureCollection", "features": [ {"type": "Feature", "properties": {"norad_id": 66650, "name": "BEE-1000", "group": "last-30-days", "lat": -62.57310616875104, "lon": 83.20326896068981, "alt_km": 592.6226273204265, "timestamp": "2025-12-17T07:00:45.612419+00:00", "meta": {"OBJECT_NAME": "BEE-1000", "OBJECT_ID": "2025-274A", "EPOCH": "2025-12-16T18:39:15.256224", "MEAN_MOTION": 14.916758, "ECCENTRICITY": 0.00105698, "INCLINATION": 97.7395, "RA_OF_ASC_NODE": 277.8907, "ARG_OF_PERICENTER": 236.505, "MEAN_ANOMALY": 123.516, "EPHEMERIS_TYPE": 0, "CLASSIFICATION_TYPE": "U", "NORAD_CAT_ID": 66650, "ELEMENT_SET_NO": 999, "REV_AT_EPOCH": 300, "BSTAR": 0.00014146549, "MEAN_MOTION_DOT": 1.368e-05, "MEAN_MOTION_DDOT": 0}, "tle": {"line1": "1 66650U 25274A   25350.77725991  .00001368  00000+0  14147-3 0  9992", "line2": "2 66650  97.7395 277.8907 0010569 236.5050 123.5160 14.91675800  3009"}}, "geometry": {"type": "Point", "coordinates": [83.20326896068981, -62.57310616875104]}}, {"type": "Feature", "properties": {"norad_id": 66651, "name": "2025-274B", "group": "last-30-days", "lat": -69.5340951421755, "lon": 77.02789060256946, "alt_km": 592.3162189001505, "timestamp": "2025-12-17T07:00:45.612429+00:00", "meta": {"OBJECT_NAME": "2025-274B", "OBJECT_ID": "2025-274B", "EPOCH": "2025-12-16T18:37:20.924832", "MEAN_MOTION": 14.91829703, "ECCENTRICITY": 0.00108047, "INCLINATION": 97.7391, "RA_OF_ASC_NODE": 277.8911, "ARG_OF_PERICENTER": 235.3801, "MEAN_ANOMALY": 124.64, "EPHEMERIS_TYPE": 0, "CLASSIFICATION_TYPE": "U", "NORAD_CAT_ID": 66651, "ELEMENT_SET_NO": 999, "REV_AT_EPOCH": 300, "BSTAR": 0.00022938491, "MEAN_MOTION_DOT": 2.261e-05, "MEAN_MOTION_DDOT": 0}, "tle": {"line1": "1 66651U 25274B   25350.77593663  .00002261  00000+0  22938-3 0  9992", "line2": "2 66651  97.7391 277.8911 0010804 235.3801 124.6400 14.91829703  3006"}}, "geometry": {"type": "Point", "coordinates": [77.02789060256946, -69.5340951421755]}}, {"type": "Feature", "properties": {"norad_id": 66652, "name": "2025-274C", "group": "last-30-days", "lat": -77.60175158824612, "lon": 60.184788513113325, "alt_km": 592.4320467061743, "timestamp": "2025-12-17T07:00:45.612441+00:00", "meta": {"OBJECT_NAME": "2025-274C", "OBJECT_ID": "2025-274C", "EPOCH": "2025-12-16T18:34:53.895360", "MEAN_MOTION": 14.91926096, "ECCENTRICITY": 0.00104024, "INCLINATION": 97.7396, "RA_OF_ASC_NODE": 277.8946, "ARG_OF_PERICENTER": 242.4489, "MEAN_ANOMALY": 117.5673, "EPHEMERIS_TYPE": 0, "CLASSIFICATION_TYPE": "U", "NORAD_CAT_ID": 66652, "ELEMENT_SET_NO": 999, "REV_AT_EPOCH": 300, "BSTAR": 0.00020918863, "MEAN_MOTION_DOT": 2.062e-05, "MEAN_MOTION_DDOT": 0}, "tle": {"line1": "1 66652U 25274C   25350.77423490  .00002062  00000+0  20919-3 0  9999", "line2": "2 66652  97.7396 277.8946 0010402 242.4489 117.5673 14.91926096  3001"}}, "geometry": {"type": "Point", "coordinates": [60.184788513113325, -77.60175158824612]}}, {"type": "Feature", "properties": {"norad_id": 66653, "name": "2025-274D", "group": "last-30-days", "lat": -77.96156125090504, "lon": 58.7818368071523, "alt_km": 592.0573932748875, "timestamp": "2025-12-17T07:00:45.612452+00:00", "meta": {"OBJECT_NAME": "2025-274D", "OBJECT_ID": "2025-274D", "EPOCH": "2025-12-16T18:34:46.537536", "MEAN_MOTION": 14.91927737, "ECCENTRICITY": 0.00113119, "INCLINATION": 97.7393, "RA_OF_ASC_NODE": 277.8943, "ARG_OF_PERICENTER": 238.5092, "MEAN_ANOMALY": 121.5022, "EPHEMERIS_TYPE": 0, "CLASSIFICATION_TYPE": "U", "NORAD_CAT_ID": 66653, "ELEMENT_SET_NO": 999, "REV_AT_EPOCH": 300, "BSTAR": 0.00015185811, "MEAN_MOTION_DOT": 1.482e-05, "MEAN_MOTION_DDOT": 0}, "tle": {"line1": "1 66653U 25274D   25350.77414974  .00001482  00000+0  15186-3 0  9992", "line2": "2 66653  97.7393 277.8943 0011311 238.5092 121.5022 14.91927737  3008"}}, "geometry": {"type": "Point", "coordinates": [58.7818368071523, -77.96156125090504]}}, {"type": "Feature", "properties": {"norad_id": 66654, "name": "JACK E", "group": "last-30-days", "lat": -81.56448029154467, "lon": -15.091802904378635, "alt_km": 591.9336240123057, "timestamp": "2025-12-17T07:00:45.612475+00:00", "meta": {"OBJECT_NAME": "JACK E", "OBJECT_ID": "2025-274E", "EPOCH": "2025-12-16T20:08:03.024960", "MEAN_MOTION": 14.92107816, "ECCENTRICITY": 0.00118452, "INCLINATION": 97.7395, "RA_OF_ASC_NODE": 277.9637, "ARG_OF_PERICENTER": 240.0867, "MEAN_ANOMALY": 119.9176, "EPHEMERIS_TYPE": 0, "CLASSIFICATION_TYPE": "U", "NORAD_CAT_ID": 66654, "ELEMENT_SET_NO": 999, "REV_AT_EPOCH": 301, "BSTAR": 0.000187878, "MEAN_MOTION_DOT": 1.855e-05, "MEAN_MOTION_DDOT": 0}, "tle": {"line1": "1 66654U 25274E   25350.83892390  .00001855  00000+0  18788-3 0  9997", "line2": "2 66654  97.7395 277.9637 0011845 240.0867 119.9176 14.92107816  3013"}}, "geometry": {"type": "Point", "coordinates": [-15.091802904378635, -81.56448029154467]}}, {"type": "Feature", "properties": {"norad_id": 66655, "name": "2025-274F", "group": "last-30-days", "lat": -78.27539132276266, "lon": 57.50876024489763, "alt_km": 602.6155391297143, "timestamp": "2025-12-17T07:00:45.612487+00:00", "meta": {"OBJECT_NAME": "2025-274F", "OBJECT_ID": "2025-274F", "EPOCH": "2025-12-16T18:34:17.228064", "MEAN_MOTION": 14.91167242, "ECCENTRICITY": 0.00052999, "INCLINATION": 97.7319, "RA_OF_ASC_NODE": 277.8939, "ARG_OF_PERICENTER": 8.16, "MEAN_ANOMALY": 351.9703, "EPHEMERIS_TYPE": 0, "CLASSIFICATION_TYPE": "U", "NORAD_CAT_ID": 66655, "ELEMENT_SET_NO": 999, "REV_AT_EPOCH": 300, "BSTAR": -1.279618e-06, "MEAN_MOTION_DOT": -6.8e-07, "MEAN_MOTION_DDOT": 0}, "tle": {"line1": "1 66655U 25274F   25350.77381051 -.00000068  00000+0 -12796-5 0  9990", "line2": "2 66655  97.7319 277.8939 0005299   8.1600 351.9703 14.91167242  3009"}}, "geometry": {"type": "Point", "coordinates": [57.50876024489763, -78.27539132276266]}}, {"type": "Feature", "properties": {"norad_id": 66656, "name": "2025-274G", "group": "last-30-days", "lat": -71.2636699579639, "lon": -57.94683637687969, "alt_km": 592.1377211705512, "timestamp": "2025-12-17T07:00:45.612497+00:00", "meta": {"OBJECT_NAME": "2025-274G", "OBJECT_ID": "2025-274G", "EPOCH": "2025-12-16T16:51:19.854432", "MEAN_MOTION": 14.92300513, "ECCENTRICITY": 0.00124148, "INCLINATION": 97.7397, "RA_OF_ASC_NODE": 277.8349, "ARG_OF_PERICENTER": 242.2279, "MEAN_ANOMALY": 117.7681, "EPHEMERIS_TYPE": 0, "CLASSIFICATION_TYPE": "U", "NORAD_CAT_ID": 66656, "ELEMENT_SET_NO": 999, "REV_AT_EPOCH": 299, "BSTAR": 0.00022323109, "MEAN_MOTION_DOT": 2.226e-05, "MEAN_MOTION_DDOT": 0}, "tle": {"line1": "1 66656U 25274G   25350.70231313  .00002226  00000+0  22323-3 0  9990", "line2": "2 66656  97.7397 277.8349 0012414 242.2279 117.7681 14.92300513  2992"}}, "geometry": {"type": "Point", "coordinates": [-57.94683637687969, -71.2636699579639]}}, {"type": "Feature", "properties": {"norad_id": 66657, "name": "SPIRONE", "group": "last-30-days", "lat": -58.79071125004317, "lon": -68.60855333952483, "alt_km": 591.7762614700923, "timestamp": "2025-12-17T07:00:45.612507+00:00", "meta": {"OBJECT_NAME": "SPIRONE", "OBJECT_ID": "2025-274H", "EPOCH": "2025-12-16T18:24:25.217856", "MEAN_MOTION": 14.92479822, "ECCENTRICITY": 0.00106419, "INCLINATION": 97.7394, "RA_OF_ASC_NODE": 277.9031, "ARG_OF_PERICENTER": 260.6472, "MEAN_ANOMALY": 99.3544, "EPHEMERIS_TYPE": 0, "CLASSIFICATION_TYPE": "U", "NORAD_CAT_ID": 66657, "ELEMENT_SET_NO": 999, "REV_AT_EPOCH": 300, "BSTAR": 0.00022761373, "MEAN_MOTION_DOT": 2.281e-05, "MEAN_MOTION_DDOT": 0}, "tle": {"line1": "1 66657U 25274H   25350.76695854  .00002281  00000+0  22761-3 0  9998", "line2": "2 66657  97.7394 277.9031 0010641 260.6472  99.3544 14.92479822  3004"}}, "geometry": {"type": "Point", "coordinates": [-68.60855333952483, -58.79071125004317]}}, {"type": "Feature", "properties": {"norad_id": 66658, "name": "2025-274J", "group": "last-30-days", "lat": -46.289514700811125, "lon": -73.39644420222052, "alt_km": 591.5948734904741, "timestamp": "2025-12-17T07:00:45.612520+00:00", "meta": {"OBJECT_NAME": "2025-274J", "OBJECT_ID": "2025-274J", "EPOCH": "2025-12-16T18:21:03.828960", "MEAN_MOTION": 14.92650133, "ECCENTRICITY": 0.00111441, "INCLINATION": 97.7393, "RA_OF_ASC_NODE": 277.9063, "ARG_OF_PERICENTER": 263.8551, "MEAN_ANOMALY": 96.1399, "EPHEMERIS_TYPE": 0, "CLASSIFICATION_TYPE": "U", "NORAD_CAT_ID": 66658, "ELEMENT_SET_NO": 999, "REV_AT_EPOCH": 300, "BSTAR": 0.00023698423, "MEAN_MOTION_DOT": 2.388e-05, "MEAN_MOTION_DDOT": 0}, "tle": {"line1": "1 66658U 25274J   25350.76462765  .00002388  00000+0  23698-3 0  9990", "line2": "2 66658  97.7393 277.9063 0011144 263.8551  96.1399 14.92650133  3000"}}, "geometry": {"type": "Point", "coordinates": [-73.39644420222052, -46.289514700811125]}}, {"type": "Feature", "properties": {"norad_id": 66659, "name": "JACK K", "group": "last-30-days", "lat": -32.76185240692489, "lon": -76.54776755539564, "alt_km": 591.5519932860998, "timestamp": "2025-12-17T07:00:45.612530+00:00", "meta": {"OBJECT_NAME": "JACK K", "OBJECT_ID": "2025-274K", "EPOCH": "2025-12-16T18:17:28.320576", "MEAN_MOTION": 14.92834658, "ECCENTRICITY": 0.0011886, "INCLINATION": 97.7396, "RA_OF_ASC_NODE": 277.9101, "ARG_OF_PERICENTER": 265.3222, "MEAN_ANOMALY": 94.664, "EPHEMERIS_TYPE": 0, "CLASSIFICATION_TYPE": "U", "NORAD_CAT_ID": 66659, "ELEMENT_SET_NO": 999, "REV_AT_EPOCH": 300, "BSTAR": 0.00024475201, "MEAN_MOTION_DOT": 2.48e-05, "MEAN_MOTION_DDOT": 0}, "tle": {"line1": "1 66659U 25274K   25350.76213334  .00002480  00000+0  24475-3 0  9994", "line2": "2 66659  97.7396 277.9101 0011886 265.3222  94.6640 14.92834658  3000"}}, "geometry": {"type": "Point", "coordinates": [-76.54776755539564, -32.76185240692489]}}]}